NORAD_CAT_ID,OBJECT_NAME,OBJECT_TYPE,EPOCH,MEAN_MOTION,ECCENTRICITY,INCLINATION,RA_OF_ASC_NODE,ARG_OF_PERICENTER,MEAN_ANOMALY,BSTAR,MEAN_MOTION_DOT,MEAN_MOTION_DDOT,TLE_LINE0,TLE_LINE1,TLE_LINE2,SEMIMAJOR_AXIS,PERIOD,APOGEE,PERIGEE,DECAYED
53837.0,STARLINK-4776,PAYLOAD,2024-04-18 10:56:25,15.08832916,0.0001368,53.2159,162.4069,84.9142,275.2007,9.6096e-05,1.241e-05,0.0,0 STARLINK-4776,1 53837U 22114V   24109.45585493  .00001241  00000-0  96096-4 0  9997,2 53837  53.2159 162.4069 0001368  84.9142 275.2007 15.08832916 88638,6917.902,95.438,540.713,538.821,0.0
53837.0,STARLINK-4776,PAYLOAD,2024-04-19 02:50:17,15.08832766,0.0001543,53.2161,159.4326,71.9633,288.1527,0.00013319,1.832e-05,0.0,0 STARLINK-4776,1 53837U 22114V   24110.11825643  .00001832  00000-0  13319-3 0  9998,2 53837  53.2161 159.4326 0001543  71.9633 288.1527 15.08832766 88193,6917.903,95.438,540.835,538.7,0.0
53837.0,STARLINK-4776,PAYLOAD,2024-04-19 10:47:12,15.08836419,0.0001612,53.2167,157.9461,76.6644,283.4527,0.00016298,2.307e-05,0.0,0 STARLINK-4776,1 53837U 22114V   24110.44945570  .00002307  00000-0  16298-3 0  9993,2 53837  53.2167 157.9461 0001612  76.6644 283.4527 15.08836419 88785,6917.891,95.438,540.871,538.641,0.0
53837.0,STARLINK-4776,PAYLOAD,2024-04-20 02:41:03,15.08855365,0.0001623,53.2168,154.9712,76.515,283.6023,0.00019342,2.793e-05,0.0,0 STARLINK-4776,1 53837U 22114V   24111.11184209  .00002793  00000-0  19342-3 0  9994,2 53837  53.2168 154.9712 0001623  76.5150 283.6023 15.08855365 88341,6917.833,95.437,540.821,538.576,0.0
53837.0,STARLINK-4776,PAYLOAD,2024-04-20 10:37:58,15.08869496,0.0001771,53.2163,153.4865,72.9508,287.1678,0.00044565,6.817e-05,0.0,0 STARLINK-4776,1 53837U 22114V   24111.44303589  .00006817  00000-0  44565-3 0  9990,2 53837  53.2163 153.4865 0001771  72.9508 287.1678 15.08869496 88930,6917.79,95.436,540.88,538.43,0.0
53837.0,STARLINK-4776,PAYLOAD,2024-04-21 02:31:49,15.08846284,0.0001485,53.2158,150.511,111.8828,248.2322,-8.1278e-05,-1.582e-05,0.0,0 STARLINK-4776,1 53837U 22114V   24112.10543961 -.00001582  00000-0 -81278-4 0  9993,2 53837  53.2158 150.5110 0001485 111.8828 248.2322 15.08846284 88490,6917.861,95.437,540.753,538.699,0.0
53837.0,STARLINK-4776,PAYLOAD,2024-04-21 12:04:09,15.08813589,0.0001418,53.2152,148.7276,73.7623,286.3525,-0.00065641,-0.00010712,0.0,0 STARLINK-4776,1 53837U 22114V   24112.50289078 -.00010712  00000-0 -65641-3 0  9993,2 53837  53.2152 148.7276 0001418  73.7623 286.3525 15.08813589 89098,6917.961,95.439,540.807,538.845,0.0
53837.0,STARLINK-4776,PAYLOAD,2024-04-22 08:44:11,15.08841594,0.0001493,53.2163,144.8632,95.6563,264.4599,0.0016321,0.00025783,0.0,0 STARLINK-4776,1 53837U 22114V   24113.36402361  .00025783  00000-0  16321-2 0  9992,2 53837  53.2163 144.8632 0001493  95.6563 264.4599 15.08841594 88681,6917.876,95.437,540.773,538.708,0.0
53837.0,STARLINK-4776,PAYLOAD,2024-04-22 11:54:57,15.08852432,0.0001575,53.216,144.2683,75.9189,284.1978,0.0016875,0.0002668,0.0,0 STARLINK-4776,1 53837U 22114V   24113.49650339  .00026680  00000-0  16875-2 0  9997,2 53837  53.2160 144.2683 0001575  75.9189 284.1978 15.08852432 89240,6917.842,95.437,540.797,538.618,0.0
53837.0,STARLINK-4776,PAYLOAD,2024-04-23 05:24:11,15.08854466,0.0001739,53.2159,140.9919,117.5764,242.5405,0.00066429,0.00010304,0.0,0 STARLINK-4776,1 53837U 22114V   24114.22513756  .00010304  00000-0  66429-3 0  9997,2 53837  53.2159 140.9919 0001739 117.5764 242.5405 15.08854466 88811,6917.836,95.437,540.904,538.498,0.0
53837.0,STARLINK-4776,PAYLOAD,2024-04-23 11:45:44,15.0885569,0.0001358,53.2151,139.8058,104.8934,255.2209,0.00054805,8.449e-05,0.0,0 STARLINK-4776,1 53837U 22114V   24114.49009650  .00008449  00000-0  54805-3 0  9991,2 53837  53.2151 139.8058 0001358 104.8934 255.2209 15.08855690 89396,6917.832,95.437,540.637,538.758,0.0
53837.0,STARLINK-4776,PAYLOAD,2024-04-24 05:14:58,15.08847487,0.0001491,53.2149,136.5334,104.9929,255.1228,0.00024246,3.574e-05,0.0,0 STARLINK-4776,1 53837U 22114V   24115.21873519  .00003574  00000-0  24246-3 0  9995,2 53837  53.2149 136.5334 0001491 104.9929 255.1228 15.08847487 88964,6917.858,95.437,540.754,538.691,0.0
53837.0,STARLINK-4776,PAYLOAD,2024-04-24 08:25:44,15.08845925,0.0001437,53.2151,135.9386,105.4824,254.6327,7.3566e-05,8.83e-06,0.0,0 STARLINK-4776,1 53837U 22114V   24115.35121493  .00000883  00000-0  73566-4 0  9997,2 53837  53.2151 135.9386 0001437 105.4824 254.6327 15.08845925 89529,6917.862,95.437,540.721,538.733,0.0
53837.0,STARLINK-4776,PAYLOAD,2024-04-25 05:05:45,15.08841368,0.0001434,53.2151,132.0746,98.7185,261.397,2.906e-05,1.75e-06,0.0,0 STARLINK-4776,1 53837U 22114V   24116.21233577  .00000175  00000-0  29060-4 0  9994,2 53837  53.2151 132.0746 0001434  98.7185 261.3970 15.08841368 89119,6917.876,95.437,540.733,538.749,0.0
53837.0,STARLINK-4776,PAYLOAD,2024-04-25 08:16:32,15.08841315,0.0001418,53.2163,131.48,100.4276,259.6876,6.8228e-05,7.98e-06,0.0,0 STARLINK-4776,1 53837U 22114V   24116.34481833  .00000798  00000-0  68228-4 0  9998,2 53837  53.2163 131.4800 0001418 100.4276 259.6876 15.08841315 89678,6917.876,95.437,540.722,538.76,0.0
53837.0,STARLINK-4776,PAYLOAD,2024-04-25 20:59:37,15.08842947,0.0001438,53.2164,129.1023,99.8634,260.2521,0.00010456,1.377e-05,0.0,0 STARLINK-4776,1 53837U 22114V   24116.87473658  .00001377  00000-0  10456-3 0  9995,2 53837  53.2164 129.1023 0001438  99.8634 260.2521 15.08842947 89757,6917.871,95.437,540.731,538.742,0.0
53837.0,STARLINK-4776,PAYLOAD,2024-04-26 04:56:33,15.08831857,0.0001358,53.2156,127.6146,96.3713,263.7434,9.2014e-06,-1.41e-06,0.0,0 STARLINK-4776,1 53837U 22114V   24117.20594542 -.00000141  00000-0  92014-5 0  9990,2 53837  53.2156 127.6146 0001358  96.3713 263.7434 15.08831857 89263,6917.905,95.438,540.71,538.831,0.0
53837.0,STARLINK-4776,PAYLOAD,2024-04-26 09:42:42,15.08835798,0.0001382,53.2155,126.7223,97.0435,263.0714,3.3609e-05,2.47e-06,0.0,0 STARLINK-4776,1 53837U 22114V   24117.40466229  .00000247  00000-0  33609-4 0  9992,2 53837  53.2155 126.7223 0001382  97.0435 263.0714 15.08835798 89839,6917.893,95.438,540.714,538.802,0.0
53837.0,STARLINK-4776,PAYLOAD,2024-04-27 04:47:20,15.08840258,0.0001354,53.2152,123.1536,95.3446,264.7701,6.8216e-05,7.98e-06,0.0,0 STARLINK-4776,1 53837U 22114V   24118.19954017  .00000798  00000-0  68216-4 0  9999,2 53837  53.2152 123.1536 0001354  95.3446 264.7701 15.08840258 89411,6917.88,95.438,540.681,538.808,0.0
53837.0,STARLINK-4776,PAYLOAD,2024-04-27 09:33:29,15.08843095,0.0001377,53.2155,122.2615,92.3407,267.7743,8.6863e-05,1.095e-05,0.0,0 STARLINK-4776,1 53837U 22114V   24118.39825809  .00001095  00000-0  86863-4 0  9996,2 53837  53.2155 122.2615 0001377  92.3407 267.7743 15.08843095 89984,6917.871,95.437,540.689,538.783,0.0
53837.0,STARLINK-4776,PAYLOAD,2024-04-27 17:30:24,15.08845258,0.0001412,53.2158,120.7757,91.1702,268.9452,7.6628e-05,9.32e-06,0.0,0 STARLINK-4776,1 53837U 22114V   24118.72945583  .00000932  00000-0  76628-4 0  9992,2 53837  53.2158 120.7757 0001412  91.1702 268.9452 15.08845258 90033,6917.864,95.437,540.706,538.753,0.0
53837.0,STARLINK-4776,PAYLOAD,2024-04-28 06:13:30,15.08846081,0.0001366,53.2165,118.3973,88.9898,271.125,-7.862e-05,-1.539e-05,0.0,0 STARLINK-4776,1 53837U 22114V   24119.25937977 -.00001539  00000-0 -78620-4 0  9999,2 53837  53.2165 118.3973 0001366  88.9898 271.1250 15.08846081 89576,6917.862,95.437,540.672,538.782,0.0
53837.0,STARLINK-4776,PAYLOAD,2024-04-28 09:24:16,15.08837429,0.0001518,53.2167,117.8024,95.8409,264.2756,6.7805e-05,7.91e-06,0.0,0 STARLINK-4776,1 53837U 22114V   24119.39186313  .00000791  00000-0  67805-4 0  9994,2 53837  53.2167 117.8024 0001518  95.8409 264.2756 15.08837429 90137,6917.888,95.438,540.803,538.703,0.0
53837.0,STARLINK-4776,PAYLOAD,2024-04-28 17:21:12,15.08840565,0.0001516,53.217,116.3157,95.5239,264.5926,8.2952e-05,1.032e-05,0.0,0 STARLINK-4776,1 53837U 22114V   24119.72306004  .00001032  00000-0  82952-4 0  9991,2 53837  53.2170 116.3157 0001516  95.5239 264.5926 15.08840565 90180,6917.879,95.438,540.792,538.695,0.0
53837.0,STARLINK-4776,PAYLOAD,2024-04-29 09:15:03,15.08845196,0.0001516,53.217,113.3416,96.6406,263.4758,6.2669e-05,7.1e-06,0.0,0 STARLINK-4776,1 53837U 22114V   24120.38545637  .00000710  00000-0  62669-4 0  9997,2 53837  53.2170 113.3416 0001516  96.6406 263.4758 15.08845196 89749,6917.865,95.437,540.778,538.681,0.0
53837.0,STARLINK-4776,PAYLOAD,2024-04-30 05:55:04,15.08838514,0.0001436,53.2169,109.4757,96.1504,263.9652,7.9428e-05,9.76e-06,0.0,0 STARLINK-4776,1 53837U 22114V   24121.24657869  .00000976  00000-0  79428-4 0  9999,2 53837  53.2169 109.4757 0001436  96.1504 263.9652 15.08838514 89874,6917.885,95.438,540.743,538.757,0.0
53837.0,STARLINK-4776,PAYLOAD,2024-05-01 08:56:37,15.08843755,0.0001306,53.2171,104.4212,92.1797,267.9345,3.1738e-05,2.17e-06,0.0,0 STARLINK-4776,1 53837U 22114V   24122.37265593  .00000217  00000-0  31738-4 0  9993,2 53837  53.2171 104.4212 0001306  92.1797 267.9345 15.08843755 90041,6917.869,95.437,540.637,538.83,0.0
53837.0,STARLINK-4776,PAYLOAD,2024-05-01 15:18:09,15.08846744,0.0001325,53.2175,103.232,92.5905,267.5239,5.1555e-05,5.33e-06,0.0,0 STARLINK-4776,1 53837U 22114V   24122.63761214  .00000533  00000-0  51555-4 0  9993,2 53837  53.2175 103.2320 0001325  92.5905 267.5239 15.08846744 90621,6917.86,95.437,540.641,538.808,0.0
53837.0,STARLINK-4776,PAYLOAD,2024-05-02 05:36:39,15.08829246,0.0001437,53.2183,100.5576,96.9781,263.1375,-3.8425e-05,-8.99e-06,0.0,0 STARLINK-4776,1 53837U 22114V   24123.23378725 -.00000899  00000-0 -38425-4 0  9999,2 53837  53.2183 100.5576 0001437  96.9781 263.1375 15.08829246 90178,6917.913,95.438,540.772,538.784,0.0
53837.0,STARLINK-4776,PAYLOAD,2024-05-02 08:47:25,15.08833095,0.0001542,53.2186,99.9629,104.1006,256.0157,-1.0064e-05,-4.48e-06,0.0,0 STARLINK-4776,1 53837U 22114V   24123.36626424 -.00000448  00000-0 -10064-4 0  9994,2 53837  53.2186  99.9629 0001542 104.1006 256.0157 15.08833095 90738,6917.901,95.438,540.833,538.7,0.0
